{
  "links" : {
    "next" : "https://api.nasa.gov/neo/rest/v1/feed?start_date=1996-04-09&end_date=1996-04-09&detailed=true&api_key=t0TVs3DtDT2H8Oy2Zy8m2eVrNsAVKAexjcZXUckd",
    "prev" : "https://api.nasa.gov/neo/rest/v1/feed?start_date=1996-04-07&end_date=1996-04-07&detailed=true&api_key=t0TVs3DtDT2H8Oy2Zy8m2eVrNsAVKAexjcZXUckd",
    "self" : "https://api.nasa.gov/neo/rest/v1/feed?start_date=1996-04-08&end_date=1996-04-08&detailed=true&api_key=t0TVs3DtDT2H8Oy2Zy8m2eVrNsAVKAexjcZXUckd"
  },
  "element_count" : 5,
  "near_earth_objects" : {
    "1996-04-08" : [ {
      "links" : {
        "self" : "https://api.nasa.gov/neo/rest/v1/neo/2204131?api_key=t0TVs3DtDT2H8Oy2Zy8m2eVrNsAVKAexjcZXUckd"
      },
      "neo_reference_id" : "2204131",
      "name" : "204131 (2003 YL)",
      "nasa_jpl_url" : "http://ssd.jpl.nasa.gov/sbdb.cgi?sstr=2204131",
      "absolute_magnitude_h" : 19.9,
      "estimated_diameter" : {
        "kilometers" : {
          "estimated_diameter_min" : 0.2783267681,
          "estimated_diameter_max" : 0.6223575734
        },
        "meters" : {
          "estimated_diameter_min" : 278.3267680719,
          "estimated_diameter_max" : 622.3575733667
        },
        "miles" : {
          "estimated_diameter_min" : 0.1729441822,
          "estimated_diameter_max" : 0.3867149477
        },
        "feet" : {
          "estimated_diameter_min" : 913.1455937611,
          "estimated_diameter_max" : 2041.8556210042
        }
      },
      "is_potentially_hazardous_asteroid" : false,
      "close_approach_data" : [ {
        "close_approach_date" : "1996-04-08",
        "epoch_date_close_approach" : 828946800000,
        "relative_velocity" : {
          "kilometers_per_second" : "23.4066305157",
          "kilometers_per_hour" : "84263.8698563602",
          "miles_per_hour" : "52358.29180047"
        },
        "miss_distance" : {
          "astronomical" : "0.1295263778",
          "lunar" : "50.385761261",
          "kilometers" : "19376870",
          "miles" : "12040229"
        },
        "orbiting_body" : "Earth"
      } ],
      "orbital_data" : {
        "orbit_id" : "59",
        "orbit_determination_date" : "2017-04-06 09:25:33",
        "orbit_uncertainty" : "0",
        "minimum_orbit_intersection" : ".0515574",
        "jupiter_tisserand_invariant" : "5.262",
        "epoch_osculation" : "2458000.5",
        "eccentricity" : ".6323730685227295",
        "semi_major_axis" : "1.146419186671376",
        "inclination" : "5.658087130522175",
        "ascending_node_longitude" : "291.9709704781965",
        "orbital_period" : "448.346305795893",
        "perihelion_distance" : ".4214545677826661",
        "perihelion_argument" : "29.4116843685898",
        "aphelion_distance" : "1.871383805560086",
        "perihelion_time" : "2457851.172425374824",
        "mean_anomaly" : "119.9026872087939",
        "mean_motion" : ".8029507444272059",
        "equinox" : "J2000"
      }
    }, {
      "links" : {
        "self" : "https://api.nasa.gov/neo/rest/v1/neo/3514891?api_key=t0TVs3DtDT2H8Oy2Zy8m2eVrNsAVKAexjcZXUckd"
      },
      "neo_reference_id" : "3514891",
      "name" : "(2010 GB6)",
      "nasa_jpl_url" : "http://ssd.jpl.nasa.gov/sbdb.cgi?sstr=3514891",
      "absolute_magnitude_h" : 22.1,
      "estimated_diameter" : {
        "kilometers" : {
          "estimated_diameter_min" : 0.1010543415,
          "estimated_diameter_max" : 0.2259643771
        },
        "meters" : {
          "estimated_diameter_min" : 101.054341542,
          "estimated_diameter_max" : 225.9643771094
        },
        "miles" : {
          "estimated_diameter_min" : 0.0627922373,
          "estimated_diameter_max" : 0.140407711
        },
        "feet" : {
          "estimated_diameter_min" : 331.5431259047,
          "estimated_diameter_max" : 741.3529669956
        }
      },
      "is_potentially_hazardous_asteroid" : false,
      "close_approach_data" : [ {
        "close_approach_date" : "1996-04-08",
        "epoch_date_close_approach" : 828946800000,
        "relative_velocity" : {
          "kilometers_per_second" : "19.5313460413",
          "kilometers_per_hour" : "70312.8457486818",
          "miles_per_hour" : "43689.6679597851"
        },
        "miss_distance" : {
          "astronomical" : "0.3402443566",
          "lunar" : "132.3550567627",
          "kilometers" : "50899832",
          "miles" : "31627688"
        },
        "orbiting_body" : "Earth"
      } ],
      "orbital_data" : {
        "orbit_id" : "19",
        "orbit_determination_date" : "2017-04-06 08:57:57",
        "orbit_uncertainty" : "1",
        "minimum_orbit_intersection" : ".095436",
        "jupiter_tisserand_invariant" : "6.550",
        "epoch_osculation" : "2458000.5",
        "eccentricity" : ".2448179992803084",
        "semi_major_axis" : ".8821099863815999",
        "inclination" : "35.31551686752507",
        "ascending_node_longitude" : "195.1507089091169",
        "orbital_period" : "302.6094840051001",
        "perihelion_distance" : ".6661535843704764",
        "perihelion_argument" : "187.9551444288656",
        "aphelion_distance" : "1.098066388392723",
        "perihelion_time" : "2457880.984779145922",
        "mean_anomaly" : "142.1815302614337",
        "mean_motion" : "1.18965207314498",
        "equinox" : "J2000"
      }
    }, {
      "links" : {
        "self" : "https://api.nasa.gov/neo/rest/v1/neo/3714553?api_key=t0TVs3DtDT2H8Oy2Zy8m2eVrNsAVKAexjcZXUckd"
      },
      "neo_reference_id" : "3714553",
      "name" : "(2015 FT118)",
      "nasa_jpl_url" : "http://ssd.jpl.nasa.gov/sbdb.cgi?sstr=3714553",
      "absolute_magnitude_h" : 20.4,
      "estimated_diameter" : {
        "kilometers" : {
          "estimated_diameter_min" : 0.2210828104,
          "estimated_diameter_max" : 0.4943561926
        },
        "meters" : {
          "estimated_diameter_min" : 221.0828103591,
          "estimated_diameter_max" : 494.3561926196
        },
        "miles" : {
          "estimated_diameter_min" : 0.137374447,
          "estimated_diameter_max" : 0.3071786018
        },
        "feet" : {
          "estimated_diameter_min" : 725.3373275385,
          "estimated_diameter_max" : 1621.9035709942
        }
      },
      "is_potentially_hazardous_asteroid" : true,
      "close_approach_data" : [ {
        "close_approach_date" : "1996-04-08",
        "epoch_date_close_approach" : 828946800000,
        "relative_velocity" : {
          "kilometers_per_second" : "11.666506366",
          "kilometers_per_hour" : "41999.4229176943",
          "miles_per_hour" : "26096.808090164"
        },
        "miss_distance" : {
          "astronomical" : "0.3670842868",
          "lunar" : "142.795791626",
          "kilometers" : "54915028",
          "miles" : "34122616"
        },
        "orbiting_body" : "Earth"
      } ],
      "orbital_data" : {
        "orbit_id" : "28",
        "orbit_determination_date" : "2017-04-06 08:34:44",
        "orbit_uncertainty" : "1",
        "minimum_orbit_intersection" : ".0379013",
        "jupiter_tisserand_invariant" : "5.327",
        "epoch_osculation" : "2458000.5",
        "eccentricity" : ".1905611641248768",
        "semi_major_axis" : "1.166841454413402",
        "inclination" : "21.09939805413952",
        "ascending_node_longitude" : "196.7630114318255",
        "orbital_period" : "460.3797383359293",
        "perihelion_distance" : ".9444867885112197",
        "perihelion_argument" : "154.5874134281157",
        "aphelion_distance" : "1.389196120315584",
        "perihelion_time" : "2458198.228673494053",
        "mean_anomaly" : "205.383459499864",
        "mean_motion" : ".7819631708841966",
        "equinox" : "J2000"
      }
    } ]
  }
}